[{"OBJECT_NAME":"BUGSAT-1 (TITA)","OBJECT_ID":"2014-033E","EPOCH":"2026-03-09T23:14:58.322976","MEAN_MOTION":15.14502987,"ECCENTRICITY":0.00292569,"INCLINATION":98.0428,"RA_OF_ASC_NODE":155.8085,"ARG_OF_PERICENTER":157.4521,"MEAN_ANOMALY":202.8002,"EPHEMERIS_TYPE":0,"CLASSIFICATION_TYPE":"U","NORAD_CAT_ID":40014,"ELEMENT_SET_NO":999,"REV_AT_EPOCH":64081,"BSTAR":0.00030961592,"MEAN_MOTION_DOT":5.686e-5,"MEAN_MOTION_DDOT":0},{"OBJECT_NAME":"STARLINK-4468","OBJECT_ID":"2022-125F","EPOCH":"2026-03-09T16:47:17.304576","MEAN_MOTION":15.08840891,"ECCENTRICITY":0.00012464,"INCLINATION":53.217,"RA_OF_ASC_NODE":224.0741,"ARG_OF_PERICENTER":84.6033,"MEAN_ANOMALY":275.5101,"EPHEMERIS_TYPE":0,"CLASSIFICATION_TYPE":"U","NORAD_CAT_ID":53969,"ELEMENT_SET_NO":999,"REV_AT_EPOCH":18932,"BSTAR":8.367502e-6,"MEAN_MOTION_DOT":-1.55e-6,"MEAN_MOTION_DDOT":0}]
